{"type": "FeatureCollection", "features": [ {"type": "Feature", "properties": {"norad_id": 66820, "name": "KOMPSAT-7", "group": "last-30-days", "lat": -17.5214913644105, "lon": 120.24053474298516, "alt_km": 563.3300968600124, "timestamp": "2025-12-22T23:36:19.411201+00:00", "meta": {"OBJECT_NAME": "KOMPSAT-7", "OBJECT_ID": "2025-279A", "EPOCH": "2025-12-22T14:43:31.763712", "MEAN_MOTION": 15.00656866, "ECCENTRICITY": 0.00110996, "INCLINATION": 97.6452, "RA_OF_ASC_NODE": 302.3072, "ARG_OF_PERICENTER": 230.5774, "MEAN_ANOMALY": 129.4468, "EPHEMERIS_TYPE": 0, "CLASSIFICATION_TYPE": "U", "NORAD_CAT_ID": 66820, "ELEMENT_SET_NO": 999, "REV_AT_EPOCH": 313, "BSTAR": 0.00023811996, "MEAN_MOTION_DOT": 2.956e-05, "MEAN_MOTION_DDOT": 0}, "tle": {"line1": "1 66820U 25279A   25356.61356208  .00002956  00000+0  23812-3 0  9999", "line2": "2 66820  97.6452 302.3072 0011099 230.5774 129.4468 15.00656866  3136"}}, "geometry": {"type": "Point", "coordinates": [120.24053474298516, -17.5214913644105]}}, {"type": "Feature", "properties": {"norad_id": 66821, "name": "STARLINK-35966", "group": "last-30-days", "lat": 3.556810778800297, "lon": 171.6561130758369, "alt_km": 411.6097818919825, "timestamp": "2025-12-22T23:36:19.411211+00:00", "meta": {"OBJECT_NAME": "STARLINK-35966", "OBJECT_ID": "2025-280A", "EPOCH": "2025-12-22T14:00:01.999872", "MEAN_MOTION": 15.52488634, "ECCENTRICITY": 0.00033743, "INCLINATION": 70.0002, "RA_OF_ASC_NODE": 171.4545, "ARG_OF_PERICENTER": 268.9709, "MEAN_ANOMALY": 18.8311, "EPHEMERIS_TYPE": 0, "CLASSIFICATION_TYPE": "U", "NORAD_CAT_ID": 66821, "ELEMENT_SET_NO": 999, "REV_AT_EPOCH": 447, "BSTAR": 0.00058007749, "MEAN_MOTION_DOT": 0.00035641, "MEAN_MOTION_DDOT": 0}, "tle": {"line1": "1 66821U 25280A   25356.58335648  .00035641  00000+0  58008-3 0  9995", "line2": "2 66821  70.0002 171.4545 0003374 268.9709  18.8311 15.52488634  4472"}}, "geometry": {"type": "Point", "coordinates": [171.6561130758369, 3.556810778800297]}}, {"type": "Feature", "properties": {"norad_id": 66822, "name": "STARLINK-35958", "group": "last-30-days", "lat": 5.355900794317421, "lon": 172.31441039559306, "alt_km": 411.46284238421504, "timestamp": "2025-12-22T23:36:19.411224+00:00", "meta": {"OBJECT_NAME": "STARLINK-35958", "OBJECT_ID": "2025-280B", "EPOCH": "2025-12-22T14:00:01.999872", "MEAN_MOTION": 15.52494741, "ECCENTRICITY": 0.00033506, "INCLINATION": 69.9998, "RA_OF_ASC_NODE": 171.4532, "ARG_OF_PERICENTER": 268.0644, "MEAN_ANOMALY": 21.6469, "EPHEMERIS_TYPE": 0, "CLASSIFICATION_TYPE": "U", "NORAD_CAT_ID": 66822, "ELEMENT_SET_NO": 999, "REV_AT_EPOCH": 447, "BSTAR": 0.00049973075, "MEAN_MOTION_DOT": 0.00030668, "MEAN_MOTION_DDOT": 0}, "tle": {"line1": "1 66822U 25280B   25356.58335648  .00030668  00000+0  49973-3 0  9991", "line2": "2 66822  69.9998 171.4532 0003350 268.0644  21.6469 15.52494741  4475"}}, "geometry": {"type": "Point", "coordinates": [172.31441039559306, 5.355900794317421]}}, {"type": "Feature", "properties": {"norad_id": 66823, "name": "STARLINK-35957", "group": "last-30-days", "lat": 7.155611788247285, "lon": 172.97568828686974, "alt_km": 411.37999523570033, "timestamp": "2025-12-22T23:36:19.411234+00:00", "meta": {"OBJECT_NAME": "STARLINK-35957", "OBJECT_ID": "2025-280C", "EPOCH": "2025-12-22T14:00:01.999872", "MEAN_MOTION": 15.52493779, "ECCENTRICITY": 0.0003391, "INCLINATION": 69.9999, "RA_OF_ASC_NODE": 171.4505, "ARG_OF_PERICENTER": 265.7911, "MEAN_ANOMALY": 25.8378, "EPHEMERIS_TYPE": 0, "CLASSIFICATION_TYPE": "U", "NORAD_CAT_ID": 66823, "ELEMENT_SET_NO": 999, "REV_AT_EPOCH": 447, "BSTAR": 0.00049687648, "MEAN_MOTION_DOT": 0.00030491, "MEAN_MOTION_DDOT": 0}, "tle": {"line1": "1 66823U 25280C   25356.58335648  .00030491  00000+0  49688-3 0  9999", "line2": "2 66823  69.9999 171.4505 0003391 265.7911  25.8378 15.52493779  4478"}}, "geometry": {"type": "Point", "coordinates": [172.97568828686974, 7.155611788247285]}}, {"type": "Feature", "properties": {"norad_id": 66824, "name": "STARLINK-35896", "group": "last-30-days", "lat": 8.958277322032403, "lon": 173.64428921604983, "alt_km": 411.0727866680172, "timestamp": "2025-12-22T23:36:19.411243+00:00", "meta": {"OBJECT_NAME": "STARLINK-35896", "OBJECT_ID": "2025-280D", "EPOCH": "2025-12-22T14:00:01.999872", "MEAN_MOTION": 15.52495668, "ECCENTRICITY": 0.00035779, "INCLINATION": 69.9999, "RA_OF_ASC_NODE": 171.4484, "ARG_OF_PERICENTER": 269.4971, "MEAN_ANOMALY": 24.0484, "EPHEMERIS_TYPE": 0, "CLASSIFICATION_TYPE": "U", "NORAD_CAT_ID": 66824, "ELEMENT_SET_NO": 999, "REV_AT_EPOCH": 447, "BSTAR": 0.00045301268, "MEAN_MOTION_DOT": 0.00027777, "MEAN_MOTION_DDOT": 0}, "tle": {"line1": "1 66824U 25280D   25356.58335648  .00027777  00000+0  45301-3 0  9991", "line2": "2 66824  69.9999 171.4484 0003577 269.4971  24.0484 15.52495668  4476"}}, "geometry": {"type": "Point", "coordinates": [173.64428921604983, 8.958277322032403]}}, {"type": "Feature", "properties": {"norad_id": 66825, "name": "STARLINK-35476", "group": "last-30-days", "lat": 10.75504103773938, "lon": 174.31729330790438, "alt_km": 411.02271802931955, "timestamp": "2025-12-22T23:36:19.411253+00:00", "meta": {"OBJECT_NAME": "STARLINK-35476", "OBJECT_ID": "2025-280E", "EPOCH": "2025-12-22T14:00:01.999872", "MEAN_MOTION": 15.52492946, "ECCENTRICITY": 0.00034283, "INCLINATION": 70, "RA_OF_ASC_NODE": 171.4458, "ARG_OF_PERICENTER": 265.5823, "MEAN_ANOMALY": 29.8838, "EPHEMERIS_TYPE": 0, "CLASSIFICATION_TYPE": "U", "NORAD_CAT_ID": 66825, "ELEMENT_SET_NO": 999, "REV_AT_EPOCH": 433, "BSTAR": 0.00047923825, "MEAN_MOTION_DOT": 0.00029398, "MEAN_MOTION_DDOT": 0}, "tle": {"line1": "1 66825U 25280E   25356.58335648  .00029398  00000+0  47924-3 0  9996", "line2": "2 66825  70.0000 171.4458 0003428 265.5823  29.8838 15.52492946  4339"}}, "geometry": {"type": "Point", "coordinates": [174.31729330790438, 10.75504103773938]}}, {"type": "Feature", "properties": {"norad_id": 66826, "name": "STARLINK-35898", "group": "last-30-days", "lat": 12.552513938516102, "lon": 174.9992547566937, "alt_km": 410.65401017174736, "timestamp": "2025-12-22T23:36:19.411262+00:00", "meta": {"OBJECT_NAME": "STARLINK-35898", "OBJECT_ID": "2025-280F", "EPOCH": "2025-12-22T14:00:01.999872", "MEAN_MOTION": 15.52496659, "ECCENTRICITY": 0.00033375, "INCLINATION": 69.9999, "RA_OF_ASC_NODE": 171.4432, "ARG_OF_PERICENTER": 269.2721, "MEAN_ANOMALY": 28.1058, "EPHEMERIS_TYPE": 0, "CLASSIFICATION_TYPE": "U", "NORAD_CAT_ID": 66826, "ELEMENT_SET_NO": 999, "REV_AT_EPOCH": 447, "BSTAR": 0.00049980732, "MEAN_MOTION_DOT": 0.00030675, "MEAN_MOTION_DDOT": 0}, "tle": {"line1": "1 66826U 25280F   25356.58335648  .00030675  00000+0  49981-3 0  9992", "line2": "2 66826  69.9999 171.4432 0003337 269.2721  28.1058 15.52496659  4479"}}, "geometry": {"type": "Point", "coordinates": [174.9992547566937, 12.552513938516102]}}, {"type": "Feature", "properties": {"norad_id": 66827, "name": "STARLINK-35959", "group": "last-30-days", "lat": 14.349405597676432, "lon": 175.69130164780918, "alt_km": 410.4746830512786, "timestamp": "2025-12-22T23:36:19.411272+00:00", "meta": {"OBJECT_NAME": "STARLINK-35959", "OBJECT_ID": "2025-280G", "EPOCH": "2025-12-22T14:00:01.999872", "MEAN_MOTION": 15.52487099, "ECCENTRICITY": 0.00033323, "INCLINATION": 69.9999, "RA_OF_ASC_NODE": 171.4406, "ARG_OF_PERICENTER": 268.594, "MEAN_ANOMALY": 30.7087, "EPHEMERIS_TYPE": 0, "CLASSIFICATION_TYPE": "U", "NORAD_CAT_ID": 66827, "ELEMENT_SET_NO": 999, "REV_AT_EPOCH": 447, "BSTAR": 0.0007208509, "MEAN_MOTION_DOT": 0.00044377, "MEAN_MOTION_DDOT": 0}, "tle": {"line1": "1 66827U 25280G   25356.58335648  .00044377  00000+0  72085-3 0  9998", "line2": "2 66827  69.9999 171.4406 0003332 268.5940  30.7087 15.52487099  4470"}}, "geometry": {"type": "Point", "coordinates": [175.69130164780918, 14.349405597676432]}}, {"type": "Feature", "properties": {"norad_id": 66828, "name": "STARLINK-35982", "group": "last-30-days", "lat": 17.930965065431113, "lon": 177.10959551976518, "alt_km": 410.0072154211939, "timestamp": "2025-12-22T23:36:19.411282+00:00", "meta": {"OBJECT_NAME": "STARLINK-35982", "OBJECT_ID": "2025-280H", "EPOCH": "2025-12-22T14:00:01.999872", "MEAN_MOTION": 15.52496959, "ECCENTRICITY": 0.0003339, "INCLINATION": 70, "RA_OF_ASC_NODE": 171.4366, "ARG_OF_PERICENTER": 270.3161, "MEAN_ANOMALY": 32.8126, "EPHEMERIS_TYPE": 0, "CLASSIFICATION_TYPE": "U", "NORAD_CAT_ID": 66828, "ELEMENT_SET_NO": 999, "REV_AT_EPOCH": 447, "BSTAR": 0.00044917461, "MEAN_MOTION_DOT": 0.0002754, "MEAN_MOTION_DDOT": 0}, "tle": {"line1": "1 66828U 25280H   25356.58335648  .00027540  00000+0  44917-3 0  9995", "line2": "2 66828  70.0000 171.4366 0003339 270.3161  32.8126 15.52496959  4477"}}, "geometry": {"type": "Point", "coordinates": [177.10959551976518, 17.930965065431113]}}, {"type": "Feature", "properties": {"norad_id": 66829, "name": "STARLINK-36084", "group": "last-30-days", "lat": 16.17914242040456, "lon": 176.40851682670208, "alt_km": 410.49143081854254, "timestamp": "2025-12-22T23:36:19.411291+00:00", "meta": {"OBJECT_NAME": "STARLINK-36084", "OBJECT_ID": "2025-280J", "EPOCH": "2025-12-22T14:00:01.999872", "MEAN_MOTION": 15.52632615, "ECCENTRICITY": 0.00031778, "INCLINATION": 70.0001, "RA_OF_ASC_NODE": 171.4382, "ARG_OF_PERICENTER": 266.6196, "MEAN_ANOMALY": 34.5892, "EPHEMERIS_TYPE": 0, "CLASSIFICATION_TYPE": "U", "NORAD_CAT_ID": 66829, "ELEMENT_SET_NO": 999, "REV_AT_EPOCH": 432, "BSTAR": -0.0037073623, "MEAN_MOTION_DOT": -0.00222884, "MEAN_MOTION_DDOT": 0}, "tle": {"line1": "1 66829U 25280J   25356.58335648 -.00222884  00000+0 -37074-2 0  9991", "line2": "2 66829  70.0001 171.4382 0003177 266.6196  34.5892 15.52632615  4327"}}, "geometry": {"type": "Point", "coordinates": [176.40851682670208, 16.17914242040456]}}]}